{"type": "FeatureCollection", "features": [ {"type": "Feature", "properties": {"norad_id": 66919, "name": "HULIANWANG DIGUI-109", "group": "last-30-days", "lat": -37.23134585184202, "lon": 32.57530803467902, "alt_km": 879.512136687692, "timestamp": "2025-12-23T18:59:30.759190+00:00", "meta": {"OBJECT_NAME": "HULIANWANG DIGUI-109", "OBJECT_ID": "2025-285E", "EPOCH": "2025-12-23T07:16:44.859072", "MEAN_MOTION": 14.03727249, "ECCENTRICITY": 0.0007911, "INCLINATION": 50.0075, "RA_OF_ASC_NODE": 74.196, "ARG_OF_PERICENTER": 327.6524, "MEAN_ANOMALY": 32.3894, "EPHEMERIS_TYPE": 0, "CLASSIFICATION_TYPE": "U", "NORAD_CAT_ID": 66919, "ELEMENT_SET_NO": 999, "REV_AT_EPOCH": 239, "BSTAR": 0.00012738944, "MEAN_MOTION_DOT": 5e-07, "MEAN_MOTION_DDOT": 0}, "tle": {"line1": "1 66919U 25285E   25357.30329698  .00000050  00000+0  12739-3 0  9994", "line2": "2 66919  50.0075  74.1960 0007911 327.6524  32.3894 14.03727249  2396"}}, "geometry": {"type": "Point", "coordinates": [32.57530803467902, -37.23134585184202]}}, {"type": "Feature", "properties": {"norad_id": 66920, "name": "HULIANWANG DIGUI-110", "group": "last-30-days", "lat": -34.875411980143724, "lon": 36.408616422813665, "alt_km": 880.9337009981109, "timestamp": "2025-12-23T18:59:30.759200+00:00", "meta": {"OBJECT_NAME": "HULIANWANG DIGUI-110", "OBJECT_ID": "2025-285F", "EPOCH": "2025-12-23T07:15:37.424736", "MEAN_MOTION": 14.03683422, "ECCENTRICITY": 0.00056191, "INCLINATION": 50.0119, "RA_OF_ASC_NODE": 74.1987, "ARG_OF_PERICENTER": 324.7806, "MEAN_ANOMALY": 35.2727, "EPHEMERIS_TYPE": 0, "CLASSIFICATION_TYPE": "U", "NORAD_CAT_ID": 66920, "ELEMENT_SET_NO": 999, "REV_AT_EPOCH": 239, "BSTAR": 0.00011180537, "MEAN_MOTION_DOT": 2.5e-07, "MEAN_MOTION_DDOT": 0}, "tle": {"line1": "1 66920U 25285F   25357.30251649  .00000025  00000+0  11181-3 0  9998", "line2": "2 66920  50.0119  74.1987 0005619 324.7806  35.2727 14.03683422  2391"}}, "geometry": {"type": "Point", "coordinates": [36.408616422813665, -34.875411980143724]}}, {"type": "Feature", "properties": {"norad_id": 66921, "name": "HULIANWANG DIGUI-111", "group": "last-30-days", "lat": -32.38510970645839, "lon": 40.0429662666344, "alt_km": 880.1969651472209, "timestamp": "2025-12-23T18:59:30.759209+00:00", "meta": {"OBJECT_NAME": "HULIANWANG DIGUI-111", "OBJECT_ID": "2025-285G", "EPOCH": "2025-12-23T07:14:28.729824", "MEAN_MOTION": 14.03632972, "ECCENTRICITY": 0.00066992, "INCLINATION": 50.0124, "RA_OF_ASC_NODE": 74.1979, "ARG_OF_PERICENTER": 328.5764, "MEAN_ANOMALY": 31.474, "EPHEMERIS_TYPE": 0, "CLASSIFICATION_TYPE": "U", "NORAD_CAT_ID": 66921, "ELEMENT_SET_NO": 999, "REV_AT_EPOCH": 239, "BSTAR": 0.00011450788, "MEAN_MOTION_DOT": 2.9e-07, "MEAN_MOTION_DDOT": 0}, "tle": {"line1": "1 66921U 25285G   25357.30172141  .00000029  00000+0  11451-3 0  9992", "line2": "2 66921  50.0124  74.1979 0006699 328.5764  31.4740 14.03632972  2390"}}, "geometry": {"type": "Point", "coordinates": [40.0429662666344, -32.38510970645839]}}, {"type": "Feature", "properties": {"norad_id": 66922, "name": "HULIANWANG DIGUI-112", "group": "last-30-days", "lat": -28.753677246583, "lon": 44.76379895463979, "alt_km": 880.1041881992596, "timestamp": "2025-12-23T18:59:30.759219+00:00", "meta": {"OBJECT_NAME": "HULIANWANG DIGUI-112", "OBJECT_ID": "2025-285H", "EPOCH": "2025-12-23T07:12:56.364768", "MEAN_MOTION": 14.03662978, "ECCENTRICITY": 0.00065212, "INCLINATION": 50.0096, "RA_OF_ASC_NODE": 74.1846, "ARG_OF_PERICENTER": 339.2312, "MEAN_ANOMALY": 20.8326, "EPHEMERIS_TYPE": 0, "CLASSIFICATION_TYPE": "U", "NORAD_CAT_ID": 66922, "ELEMENT_SET_NO": 999, "REV_AT_EPOCH": 239, "BSTAR": 0.0001238419, "MEAN_MOTION_DOT": 4.4e-07, "MEAN_MOTION_DDOT": 0}, "tle": {"line1": "1 66922U 25285H   25357.30065237  .00000044  00000+0  12384-3 0  9993", "line2": "2 66922  50.0096  74.1846 0006521 339.2312  20.8326 14.03662978  2395"}}, "geometry": {"type": "Point", "coordinates": [44.76379895463979, -28.753677246583]}}, {"type": "Feature", "properties": {"norad_id": 66923, "name": "HULIANWANG DIGUI-113", "group": "last-30-days", "lat": -24.516715187700317, "lon": 49.66905156751577, "alt_km": 880.430667521674, "timestamp": "2025-12-23T18:59:30.759230+00:00", "meta": {"OBJECT_NAME": "HULIANWANG DIGUI-113", "OBJECT_ID": "2025-285J", "EPOCH": "2025-12-23T07:11:13.456320", "MEAN_MOTION": 14.03700887, "ECCENTRICITY": 0.00051278, "INCLINATION": 50.0095, "RA_OF_ASC_NODE": 74.18, "ARG_OF_PERICENTER": 333.7511, "MEAN_ANOMALY": 26.3133, "EPHEMERIS_TYPE": 0, "CLASSIFICATION_TYPE": "U", "NORAD_CAT_ID": 66923, "ELEMENT_SET_NO": 999, "REV_AT_EPOCH": 239, "BSTAR": 0.00011699168, "MEAN_MOTION_DOT": 3.4e-07, "MEAN_MOTION_DDOT": 0}, "tle": {"line1": "1 66923U 25285J   25357.29946130  .00000034  00000+0  11699-3 0  9999", "line2": "2 66923  50.0095  74.1800 0005127 333.7511  26.3133 14.03700887  2395"}}, "geometry": {"type": "Point", "coordinates": [49.66905156751577, -24.516715187700317]}}, {"type": "Feature", "properties": {"norad_id": 66924, "name": "CZ-8A R/B", "group": "last-30-days", "lat": 42.663160014255176, "lon": -161.56518545438354, "alt_km": 708.3819677027032, "timestamp": "2025-12-23T18:59:30.759240+00:00", "meta": {"OBJECT_NAME": "CZ-8A R/B", "OBJECT_ID": "2025-285K", "EPOCH": "2025-12-23T05:01:55.865568", "MEAN_MOTION": 14.30505767, "ECCENTRICITY": 0.01192482, "INCLINATION": 50.0083, "RA_OF_ASC_NODE": 71.5871, "ARG_OF_PERICENTER": 143.6553, "MEAN_ANOMALY": 217.2535, "EPHEMERIS_TYPE": 0, "CLASSIFICATION_TYPE": "U", "NORAD_CAT_ID": 66924, "ELEMENT_SET_NO": 999, "REV_AT_EPOCH": 242, "BSTAR": 5.5302115e-05, "MEAN_MOTION_DOT": -1e-07, "MEAN_MOTION_DDOT": 0}, "tle": {"line1": "1 66924U 25285K   25357.20967437 -.00000010  00000+0  55302-4 0  9999", "line2": "2 66924  50.0083  71.5871 0119248 143.6553 217.2535 14.30505767  2427"}}, "geometry": {"type": "Point", "coordinates": [-161.56518545438354, 42.663160014255176]}}, {"type": "Feature", "properties": {"norad_id": 66925, "name": "STARLINK-35945", "group": "last-30-days", "lat": 25.229147570388722, "lon": 154.47641972410133, "alt_km": 358.53725759091867, "timestamp": "2025-12-23T18:59:30.759249+00:00", "meta": {"OBJECT_NAME": "STARLINK-35945", "OBJECT_ID": "2025-286A", "EPOCH": "2025-12-23T06:00:00.999648", "MEAN_MOTION": 15.71263305, "ECCENTRICITY": 9.74e-05, "INCLINATION": 53.159, "RA_OF_ASC_NODE": 357.8349, "ARG_OF_PERICENTER": 82.2238, "MEAN_ANOMALY": 243.994, "EPHEMERIS_TYPE": 0, "CLASSIFICATION_TYPE": "U", "NORAD_CAT_ID": 66925, "ELEMENT_SET_NO": 999, "REV_AT_EPOCH": 368, "BSTAR": -0.017110669, "MEAN_MOTION_DOT": -0.01957553, "MEAN_MOTION_DDOT": 0}, "tle": {"line1": "1 66925U 25286A   25357.25001157 -.01957553  00000+0 -17111-1 0  9992", "line2": "2 66925  53.1590 357.8349 0000974  82.2238 243.9940 15.71263305  3688"}}, "geometry": {"type": "Point", "coordinates": [154.47641972410133, 25.229147570388722]}}, {"type": "Feature", "properties": {"norad_id": 66926, "name": "STARLINK-35942", "group": "last-30-days", "lat": 28.796724800685006, "lon": 150.83552553644628, "alt_km": 362.8134200070863, "timestamp": "2025-12-23T18:59:30.759259+00:00", "meta": {"OBJECT_NAME": "STARLINK-35942", "OBJECT_ID": "2025-286B", "EPOCH": "2025-12-23T06:00:00.999648", "MEAN_MOTION": 15.69584657, "ECCENTRICITY": 0.00010265, "INCLINATION": 53.1594, "RA_OF_ASC_NODE": 357.8376, "ARG_OF_PERICENTER": 94.4999, "MEAN_ANOMALY": 230.2014, "EPHEMERIS_TYPE": 0, "CLASSIFICATION_TYPE": "U", "NORAD_CAT_ID": 66926, "ELEMENT_SET_NO": 999, "REV_AT_EPOCH": 368, "BSTAR": -0.018589521, "MEAN_MOTION_DOT": -0.01978491, "MEAN_MOTION_DDOT": 0}, "tle": {"line1": "1 66926U 25286B   25357.25001157 -.01978491  00000+0 -18590-1 0  9999", "line2": "2 66926  53.1594 357.8376 0001026  94.4999 230.2014 15.69584657  3685"}}, "geometry": {"type": "Point", "coordinates": [150.83552553644628, 28.796724800685006]}}, {"type": "Feature", "properties": {"norad_id": 66927, "name": "STARLINK-35943", "group": "last-30-days", "lat": 27.390605018452042, "lon": 152.31018988804433, "alt_km": 363.01246537420684, "timestamp": "2025-12-23T18:59:30.759269+00:00", "meta": {"OBJECT_NAME": "STARLINK-35943", "OBJECT_ID": "2025-286C", "EPOCH": "2025-12-23T06:00:00.999648", "MEAN_MOTION": 15.69585951, "ECCENTRICITY": 0.00010937, "INCLINATION": 53.159, "RA_OF_ASC_NODE": 357.8342, "ARG_OF_PERICENTER": 97.6579, "MEAN_ANOMALY": 228.9579, "EPHEMERIS_TYPE": 0, "CLASSIFICATION_TYPE": "U", "NORAD_CAT_ID": 66927, "ELEMENT_SET_NO": 999, "REV_AT_EPOCH": 368, "BSTAR": -0.018606535, "MEAN_MOTION_DOT": -0.01980234, "MEAN_MOTION_DDOT": 0}, "tle": {"line1": "1 66927U 25286C   25357.25001157 -.01980234  00000+0 -18607-1 0  9997", "line2": "2 66927  53.1590 357.8342 0001093  97.6579 228.9579 15.69585951  3686"}}, "geometry": {"type": "Point", "coordinates": [152.31018988804433, 27.390605018452042]}}, {"type": "Feature", "properties": {"norad_id": 66928, "name": "STARLINK-35944", "group": "last-30-days", "lat": 30.18795307156014, "lon": 149.31881878619913, "alt_km": 362.52121182337214, "timestamp": "2025-12-23T18:59:30.759278+00:00", "meta": {"OBJECT_NAME": "STARLINK-35944", "OBJECT_ID": "2025-286D", "EPOCH": "2025-12-23T06:00:00.999648", "MEAN_MOTION": 15.69586038, "ECCENTRICITY": 0.00011333, "INCLINATION": 53.159, "RA_OF_ASC_NODE": 357.8418, "ARG_OF_PERICENTER": 92.7334, "MEAN_ANOMALY": 230.0487, "EPHEMERIS_TYPE": 0, "CLASSIFICATION_TYPE": "U", "NORAD_CAT_ID": 66928, "ELEMENT_SET_NO": 999, "REV_AT_EPOCH": 368, "BSTAR": -0.018610088, "MEAN_MOTION_DOT": -0.01980604, "MEAN_MOTION_DDOT": 0}, "tle": {"line1": "1 66928U 25286D   25357.25001157 -.01980604  00000+0 -18610-1 0  9993", "line2": "2 66928  53.1590 357.8418 0001133  92.7334 230.0487 15.69586038  3680"}}, "geometry": {"type": "Point", "coordinates": [149.31881878619913, 30.18795307156014]}}]}